[{"OBJECT_NAME":"GEOSCAN 5 (RS92S5)","OBJECT_ID":"2025-155R","EPOCH":"2026-03-09T22:01:07.273920","MEAN_MOTION":15.30265233,"ECCENTRICITY":0.00070849,"INCLINATION":97.4462,"RA_OF_ASC_NODE":37.7456,"ARG_OF_PERICENTER":154.5846,"MEAN_ANOMALY":205.5745,"EPHEMERIS_TYPE":0,"CLASSIFICATION_TYPE":"U","NORAD_CAT_ID":64891,"ELEMENT_SET_NO":999,"REV_AT_EPOCH":6562,"BSTAR":0.00068639307,"MEAN_MOTION_DOT":0.00020065,"MEAN_MOTION_DDOT":0},{"OBJECT_NAME":"STARLINK-35461","OBJECT_ID":"2025-236C","EPOCH":"2026-03-09T08:05:49.974144","MEAN_MOTION":15.30221657,"ECCENTRICITY":0.00010049,"INCLINATION":53.1584,"RA_OF_ASC_NODE":105.2978,"ARG_OF_PERICENTER":134.7805,"MEAN_ANOMALY":225.3277,"EPHEMERIS_TYPE":0,"CLASSIFICATION_TYPE":"U","NORAD_CAT_ID":66088,"ELEMENT_SET_NO":999,"REV_AT_EPOCH":2283,"BSTAR":0.0009985486,"MEAN_MOTION_DOT":0.00029352,"MEAN_MOTION_DDOT":0}]
